0 COSMOS 2251 DEB
1 35723U 93036AQU 13282.70525758  .00008557  00000-0  26388-2 0  6289
2 35723 074.0198 152.8154 0044530 214.4254 203.1352 14.40944178230491
0 COSMOS 2251 DEB
1 35723U 93036AQU 13285.67943911  .00007953  00000-0  24502-2 0  6299
2 35723 074.0223 147.3097 0045292 207.5211 152.2996 14.40987692230921
0 COSMOS 2251 DEB
1 35723U 93036AQU 13286.58802615  .00007876  00000-0  24275-2 0  6308
2 35723 074.0201 145.6220 0044267 205.8541 185.4191 14.40996679231059
0 COSMOS 2251 DEB
1 35723U 93036AQU 13289.57291191  .00012423  00000-0  38175-2 0  6310
2 35723 074.0188 140.0916 0044059 199.4557 190.2366 14.41052113231480
0 COSMOS 2251 DEB
1 35723U 93036AQU 13292.02637045  .00010038  00000-0  30846-2 0  6324
2 35723 074.0191 135.5463 0043897 193.9895 318.8250 14.41098600231844
0 COSMOS 2251 DEB
1 35723U 93036AQU 13295.61929345  .00013744  00000-0  42127-2 0  6332
2 35723 074.0195 128.8881 0043710 186.2713 239.4124 14.41166308232351
